[{"OBJECT_NAME":"STARLINK-5582","OBJECT_ID":"2023-078L","EPOCH":"2026-01-15T17:43:20.210304","MEAN_MOTION":14.98330212,"ECCENTRICITY":0.00033404,"INCLINATION":70.002,"RA_OF_ASC_NODE":118.1702,"ARG_OF_PERICENTER":270.2763,"MEAN_ANOMALY":89.8013,"EPHEMERIS_TYPE":0,"CLASSIFICATION_TYPE":"U","NORAD_CAT_ID":56777,"ELEMENT_SET_NO":999,"REV_AT_EPOCH":14474,"BSTAR":0.00018323815,"MEAN_MOTION_DOT":2.094e-5,"MEAN_MOTION_DDOT":0},{"OBJECT_NAME":"STARLINK-6304","OBJECT_ID":"2023-078M","EPOCH":"2026-01-15T15:24:50.762016","MEAN_MOTION":14.98317067,"ECCENTRICITY":0.0002752,"INCLINATION":70.0004,"RA_OF_ASC_NODE":98.3673,"ARG_OF_PERICENTER":240.3557,"MEAN_ANOMALY":119.7328,"EPHEMERIS_TYPE":0,"CLASSIFICATION_TYPE":"U","NORAD_CAT_ID":56778,"ELEMENT_SET_NO":999,"REV_AT_EPOCH":14522,"BSTAR":-0.00012835,"MEAN_MOTION_DOT":-1.624e-5,"MEAN_MOTION_DDOT":0},{"OBJECT_NAME":"STARLINK-6231","OBJECT_ID":"2023-078N","EPOCH":"2026-01-15T14:48:44.682912","MEAN_MOTION":14.98330736,"ECCENTRICITY":0.0002875,"INCLINATION":70.0008,"RA_OF_ASC_NODE":98.2769,"ARG_OF_PERICENTER":273.5426,"MEAN_ANOMALY":86.5405,"EPHEMERIS_TYPE":0,"CLASSIFICATION_TYPE":"U","NORAD_CAT_ID":56779,"ELEMENT_SET_NO":999,"REV_AT_EPOCH":14521,"BSTAR":-3.5557e-5,"MEAN_MOTION_DOT":-5.17e-6,"MEAN_MOTION_DDOT":0},{"OBJECT_NAME":"STARLINK-5963","OBJECT_ID":"2023-078P","EPOCH":"2026-01-15T17:37:31.905120","MEAN_MOTION":14.98329819,"ECCENTRICITY":0.00034085,"INCLINATION":70.0002,"RA_OF_ASC_NODE":117.7744,"ARG_OF_PERICENTER":274.0049,"MEAN_ANOMALY":86.072,"EPHEMERIS_TYPE":0,"CLASSIFICATION_TYPE":"U","NORAD_CAT_ID":56780,"ELEMENT_SET_NO":999,"REV_AT_EPOCH":14475,"BSTAR":2.9929963e-5,"MEAN_MOTION_DOT":2.64e-6,"MEAN_MOTION_DDOT":0},{"OBJECT_NAME":"STARLINK-5989","OBJECT_ID":"2023-078Q","EPOCH":"2026-01-15T17:13:18.486912","MEAN_MOTION":14.98318945,"ECCENTRICITY":0.00030456,"INCLINATION":70.001,"RA_OF_ASC_NODE":118.0943,"ARG_OF_PERICENTER":273.1851,"MEAN_ANOMALY":86.896,"EPHEMERIS_TYPE":0,"CLASSIFICATION_TYPE":"U","NORAD_CAT_ID":56781,"ELEMENT_SET_NO":999,"REV_AT_EPOCH":14474,"BSTAR":0.0001041063,"MEAN_MOTION_DOT":1.149e-5,"MEAN_MOTION_DDOT":0},{"OBJECT_NAME":"STARLINK-6352","OBJECT_ID":"2023-078R","EPOCH":"2026-01-15T15:18:47.879424","MEAN_MOTION":14.98334121,"ECCENTRICITY":0.0003299,"INCLINATION":70.0001,"RA_OF_ASC_NODE":98.3509,"ARG_OF_PERICENTER":270.4814,"MEAN_ANOMALY":89.5967,"EPHEMERIS_TYPE":0,"CLASSIFICATION_TYPE":"U","NORAD_CAT_ID":56782,"ELEMENT_SET_NO":999,"REV_AT_EPOCH":14522,"BSTAR":9.732e-5,"MEAN_MOTION_DOT":1.068e-5,"MEAN_MOTION_DDOT":0},{"OBJECT_NAME":"STARLINK-6357","OBJECT_ID":"2023-078S","EPOCH":"2026-01-15T15:06:46.645920","MEAN_MOTION":14.98336785,"ECCENTRICITY":0.0002925,"INCLINATION":70.0004,"RA_OF_ASC_NODE":98.3218,"ARG_OF_PERICENTER":271.0422,"MEAN_ANOMALY":89.0402,"EPHEMERIS_TYPE":0,"CLASSIFICATION_TYPE":"U","NORAD_CAT_ID":56783,"ELEMENT_SET_NO":999,"REV_AT_EPOCH":14522,"BSTAR":-0.00031038,"MEAN_MOTION_DOT":-3.795e-5,"MEAN_MOTION_DDOT":0},{"OBJECT_NAME":"STARLINK-6354","OBJECT_ID":"2023-078T","EPOCH":"2026-01-15T15:12:45.560160","MEAN_MOTION":14.98336457,"ECCENTRICITY":0.0003052,"INCLINATION":70.0001,"RA_OF_ASC_NODE":98.3361,"ARG_OF_PERICENTER":267.3776,"MEAN_ANOMALY":92.7034,"EPHEMERIS_TYPE":0,"CLASSIFICATION_TYPE":"U","NORAD_CAT_ID":56784,"ELEMENT_SET_NO":999,"REV_AT_EPOCH":14522,"BSTAR":0.00024575,"MEAN_MOTION_DOT":2.841e-5,"MEAN_MOTION_DDOT":0},{"OBJECT_NAME":"STARLINK-5931","OBJECT_ID":"2023-078U","EPOCH":"2026-01-15T17:25:18.660288","MEAN_MOTION":14.98328506,"ECCENTRICITY":0.00031842,"INCLINATION":70.0008,"RA_OF_ASC_NODE":118.1245,"ARG_OF_PERICENTER":269.6393,"MEAN_ANOMALY":90.4401,"EPHEMERIS_TYPE":0,"CLASSIFICATION_TYPE":"U","NORAD_CAT_ID":56785,"ELEMENT_SET_NO":999,"REV_AT_EPOCH":14543,"BSTAR":-2.2196451e-5,"MEAN_MOTION_DOT":-3.58e-6,"MEAN_MOTION_DDOT":0},{"OBJECT_NAME":"STARLINK-6341","OBJECT_ID":"2023-078V","EPOCH":"2026-01-15T15:00:46.173024","MEAN_MOTION":14.98332367,"ECCENTRICITY":0.0002857,"INCLINATION":70.0006,"RA_OF_ASC_NODE":98.3082,"ARG_OF_PERICENTER":266.4648,"MEAN_ANOMALY":93.6184,"EPHEMERIS_TYPE":0,"CLASSIFICATION_TYPE":"U","NORAD_CAT_ID":56786,"ELEMENT_SET_NO":999,"REV_AT_EPOCH":14522,"BSTAR":-3.7718e-5,"MEAN_MOTION_DOT":-5.43e-6,"MEAN_MOTION_DDOT":0},{"OBJECT_NAME":"STARLINK-6326","OBJECT_ID":"2023-078W","EPOCH":"2026-01-15T16:00:49.958496","MEAN_MOTION":14.98332471,"ECCENTRICITY":0.00030071,"INCLINATION":70.0001,"RA_OF_ASC_NODE":98.0533,"ARG_OF_PERICENTER":268.5079,"MEAN_ANOMALY":91.5735,"EPHEMERIS_TYPE":0,"CLASSIFICATION_TYPE":"U","NORAD_CAT_ID":56787,"ELEMENT_SET_NO":999,"REV_AT_EPOCH":14523,"BSTAR":7.7070845e-5,"MEAN_MOTION_DOT":8.27e-6,"MEAN_MOTION_DDOT":0},{"OBJECT_NAME":"STARLINK-6336","OBJECT_ID":"2023-078X","EPOCH":"2026-01-15T14:54:45.152352","MEAN_MOTION":14.98333432,"ECCENTRICITY":0.0003262,"INCLINATION":70.0001,"RA_OF_ASC_NODE":98.2925,"ARG_OF_PERICENTER":269.8265,"MEAN_ANOMALY":90.252,"EPHEMERIS_TYPE":0,"CLASSIFICATION_TYPE":"U","NORAD_CAT_ID":56788,"ELEMENT_SET_NO":999,"REV_AT_EPOCH":14522,"BSTAR":5.6336e-5,"MEAN_MOTION_DOT":5.79e-6,"MEAN_MOTION_DDOT":0},{"OBJECT_NAME":"STARLINK-6345","OBJECT_ID":"2023-078Z","EPOCH":"2026-01-15T14:30:23.544288","MEAN_MOTION":14.98332199,"ECCENTRICITY":0.0003135,"INCLINATION":70,"RA_OF_ASC_NODE":78.3495,"ARG_OF_PERICENTER":269.0876,"MEAN_ANOMALY":90.9924,"EPHEMERIS_TYPE":0,"CLASSIFICATION_TYPE":"U","NORAD_CAT_ID":56790,"ELEMENT_SET_NO":999,"REV_AT_EPOCH":14571,"BSTAR":7.0425e-5,"MEAN_MOTION_DOT":7.47e-6,"MEAN_MOTION_DDOT":0},{"OBJECT_NAME":"STARLINK-5977","OBJECT_ID":"2023-078AA","EPOCH":"2026-01-15T16:31:12.696096","MEAN_MOTION":14.9833038,"ECCENTRICITY":0.00033026,"INCLINATION":70.0003,"RA_OF_ASC_NODE":117.9947,"ARG_OF_PERICENTER":271.5487,"MEAN_ANOMALY":88.5294,"EPHEMERIS_TYPE":0,"CLASSIFICATION_TYPE":"U","NORAD_CAT_ID":56791,"ELEMENT_SET_NO":999,"REV_AT_EPOCH":14474,"BSTAR":-6.447142e-6,"MEAN_MOTION_DOT":-1.7e-6,"MEAN_MOTION_DDOT":0},{"OBJECT_NAME":"STARLINK-6046","OBJECT_ID":"2023-078AB","EPOCH":"2026-01-15T17:31:19.051104","MEAN_MOTION":14.98330337,"ECCENTRICITY":0.00028606,"INCLINATION":70.0007,"RA_OF_ASC_NODE":118.1402,"ARG_OF_PERICENTER":273.9547,"MEAN_ANOMALY":86.1285,"EPHEMERIS_TYPE":0,"CLASSIFICATION_TYPE":"U","NORAD_CAT_ID":56792,"ELEMENT_SET_NO":999,"REV_AT_EPOCH":14474,"BSTAR":-8.34603e-7,"MEAN_MOTION_DOT":-1.03e-6,"MEAN_MOTION_DDOT":0},{"OBJECT_NAME":"STARLINK-6052","OBJECT_ID":"2023-078AC","EPOCH":"2026-01-15T16:55:15.343680","MEAN_MOTION":14.98328164,"ECCENTRICITY":0.00033097,"INCLINATION":70.0004,"RA_OF_ASC_NODE":118.0498,"ARG_OF_PERICENTER":273.7077,"MEAN_ANOMALY":86.3704,"EPHEMERIS_TYPE":0,"CLASSIFICATION_TYPE":"U","NORAD_CAT_ID":56793,"ELEMENT_SET_NO":999,"REV_AT_EPOCH":14474,"BSTAR":-5.6538875e-5,"MEAN_MOTION_DOT":-7.68e-6,"MEAN_MOTION_DDOT":0},{"OBJECT_NAME":"STARLINK-6060","OBJECT_ID":"2023-078AD","EPOCH":"2026-01-15T16:18:52.042464","MEAN_MOTION":14.9833284,"ECCENTRICITY":0.00027731,"INCLINATION":70.0011,"RA_OF_ASC_NODE":98.0952,"ARG_OF_PERICENTER":266.3955,"MEAN_ANOMALY":93.6887,"EPHEMERIS_TYPE":0,"CLASSIFICATION_TYPE":"U","NORAD_CAT_ID":56794,"ELEMENT_SET_NO":999,"REV_AT_EPOCH":14523,"BSTAR":0.00010176584,"MEAN_MOTION_DOT":1.122e-5,"MEAN_MOTION_DDOT":0},{"OBJECT_NAME":"STARLINK-6061","OBJECT_ID":"2023-078AE","EPOCH":"2026-01-15T15:43:02.203968","MEAN_MOTION":14.98333278,"ECCENTRICITY":0.00033831,"INCLINATION":69.9999,"RA_OF_ASC_NODE":98.0067,"ARG_OF_PERICENTER":268.8142,"MEAN_ANOMALY":91.2629,"EPHEMERIS_TYPE":0,"CLASSIFICATION_TYPE":"U","NORAD_CAT_ID":56795,"ELEMENT_SET_NO":999,"REV_AT_EPOCH":14523,"BSTAR":5.415669e-6,"MEAN_MOTION_DOT":-2.8e-7,"MEAN_MOTION_DDOT":0},{"OBJECT_NAME":"STARLINK-6049","OBJECT_ID":"2023-078AF","EPOCH":"2026-01-15T17:19:18.236640","MEAN_MOTION":14.98328296,"ECCENTRICITY":0.0002474,"INCLINATION":70.0024,"RA_OF_ASC_NODE":118.1094,"ARG_OF_PERICENTER":267.1921,"MEAN_ANOMALY":92.8955,"EPHEMERIS_TYPE":0,"CLASSIFICATION_TYPE":"U","NORAD_CAT_ID":56796,"ELEMENT_SET_NO":999,"REV_AT_EPOCH":14474,"BSTAR":6.8219214e-5,"MEAN_MOTION_DOT":7.21e-6,"MEAN_MOTION_DDOT":0},{"OBJECT_NAME":"STARLINK-6058","OBJECT_ID":"2023-078AG","EPOCH":"2026-01-15T16:01:11.741664","MEAN_MOTION":14.98329275,"ECCENTRICITY":0.00032061,"INCLINATION":70.0005,"RA_OF_ASC_NODE":118.3149,"ARG_OF_PERICENTER":269.4455,"MEAN_ANOMALY":90.6336,"EPHEMERIS_TYPE":0,"CLASSIFICATION_TYPE":"U","NORAD_CAT_ID":56797,"ELEMENT_SET_NO":999,"REV_AT_EPOCH":14473,"BSTAR":1.6465197e-5,"MEAN_MOTION_DOT":1.03e-6,"MEAN_MOTION_DDOT":0},{"OBJECT_NAME":"STARLINK-5953","OBJECT_ID":"2023-078AJ","EPOCH":"2026-01-15T17:01:15.920256","MEAN_MOTION":14.98328896,"ECCENTRICITY":0.00034689,"INCLINATION":70.0004,"RA_OF_ASC_NODE":118.061,"ARG_OF_PERICENTER":274.3668,"MEAN_ANOMALY":85.7094,"EPHEMERIS_TYPE":0,"CLASSIFICATION_TYPE":"U","NORAD_CAT_ID":56799,"ELEMENT_SET_NO":999,"REV_AT_EPOCH":14474,"BSTAR":-9.869645e-6,"MEAN_MOTION_DOT":-2.11e-6,"MEAN_MOTION_DDOT":0},{"OBJECT_NAME":"STARLINK-6036","OBJECT_ID":"2023-078AK","EPOCH":"2026-01-15T17:07:16.874400","MEAN_MOTION":14.98333759,"ECCENTRICITY":0.00032319,"INCLINATION":70.0006,"RA_OF_ASC_NODE":118.0802,"ARG_OF_PERICENTER":269.8827,"MEAN_ANOMALY":90.1962,"EPHEMERIS_TYPE":0,"CLASSIFICATION_TYPE":"U","NORAD_CAT_ID":56800,"ELEMENT_SET_NO":999,"REV_AT_EPOCH":14474,"BSTAR":0.00010038455,"MEAN_MOTION_DOT":1.105e-5,"MEAN_MOTION_DDOT":0},{"OBJECT_NAME":"STARLINK-6087","OBJECT_ID":"2023-078AL","EPOCH":"2026-01-15T15:54:49.241952","MEAN_MOTION":14.98336174,"ECCENTRICITY":0.00031795,"INCLINATION":69.9997,"RA_OF_ASC_NODE":98.0351,"ARG_OF_PERICENTER":269.2814,"MEAN_ANOMALY":90.798,"EPHEMERIS_TYPE":0,"CLASSIFICATION_TYPE":"U","NORAD_CAT_ID":56801,"ELEMENT_SET_NO":999,"REV_AT_EPOCH":14523,"BSTAR":9.77734e-5,"MEAN_MOTION_DOT":1.074e-5,"MEAN_MOTION_DDOT":0}]
